{"type": "FeatureCollection", "features": [ {"type": "Feature", "properties": {"norad_id": 66635, "name": "STARLINK-35955", "group": "last-30-days", "lat": -29.144960455583053, "lon": -39.02817333977009, "alt_km": 450.96660085579424, "timestamp": "2025-12-27T17:24:56.104255+00:00", "meta": {"OBJECT_NAME": "STARLINK-35955", "OBJECT_ID": "2025-271U", "EPOCH": "2025-12-27T11:48:05.656032", "MEAN_MOTION": 15.39657722, "ECCENTRICITY": 0.0001033, "INCLINATION": 53.1601, "RA_OF_ASC_NODE": 117.3625, "ARG_OF_PERICENTER": 116.6157, "MEAN_ANOMALY": 243.4954, "EPHEMERIS_TYPE": 0, "CLASSIFICATION_TYPE": "U", "NORAD_CAT_ID": 66635, "ELEMENT_SET_NO": 999, "REV_AT_EPOCH": 648, "BSTAR": 0.001034, "MEAN_MOTION_DOT": 0.00041235, "MEAN_MOTION_DDOT": 0}, "tle": {"line1": "1 66635U 25271U   25361.49173213  .00041235  00000+0  10340-2 0  9994", "line2": "2 66635  53.1601 117.3625 0001033 116.6157 243.4954 15.39657722  6489"}}, "geometry": {"type": "Point", "coordinates": [-39.02817333977009, -29.144960455583053]}}, {"type": "Feature", "properties": {"norad_id": 66636, "name": "STARLINK-35968", "group": "last-30-days", "lat": -9.390388242607614, "lon": -56.56783639528962, "alt_km": 449.10768485326207, "timestamp": "2025-12-27T17:24:56.104265+00:00", "meta": {"OBJECT_NAME": "STARLINK-35968", "OBJECT_ID": "2025-271V", "EPOCH": "2025-12-27T11:54:46.768032", "MEAN_MOTION": 15.39658351, "ECCENTRICITY": 0.0001048, "INCLINATION": 53.1604, "RA_OF_ASC_NODE": 117.3908, "ARG_OF_PERICENTER": 100.1409, "MEAN_ANOMALY": 259.9714, "EPHEMERIS_TYPE": 0, "CLASSIFICATION_TYPE": "U", "NORAD_CAT_ID": 66636, "ELEMENT_SET_NO": 999, "REV_AT_EPOCH": 648, "BSTAR": 0.0010735, "MEAN_MOTION_DOT": 0.00042836, "MEAN_MOTION_DDOT": 0}, "tle": {"line1": "1 66636U 25271V   25361.49637463  .00042836  00000+0  10735-2 0  9993", "line2": "2 66636  53.1604 117.3908 0001048 100.1409 259.9714 15.39658351  6486"}}, "geometry": {"type": "Point", "coordinates": [-56.56783639528962, -9.390388242607614]}}, {"type": "Feature", "properties": {"norad_id": 66637, "name": "STARLINK-35953", "group": "last-30-days", "lat": -45.63287490618546, "lon": -13.754014888648337, "alt_km": 452.10183900641823, "timestamp": "2025-12-27T17:24:56.104278+00:00", "meta": {"OBJECT_NAME": "STARLINK-35953", "OBJECT_ID": "2025-271W", "EPOCH": "2025-12-27T00:47:04.456608", "MEAN_MOTION": 15.39644596, "ECCENTRICITY": 9.745e-05, "INCLINATION": 53.1593, "RA_OF_ASC_NODE": 119.4733, "ARG_OF_PERICENTER": 88.4175, "MEAN_ANOMALY": 271.6942, "EPHEMERIS_TYPE": 0, "CLASSIFICATION_TYPE": "U", "NORAD_CAT_ID": 66637, "ELEMENT_SET_NO": 999, "REV_AT_EPOCH": 641, "BSTAR": 0.0015008031, "MEAN_MOTION_DOT": 0.00060155, "MEAN_MOTION_DDOT": 0}, "tle": {"line1": "1 66637U 25271W   25361.03269047  .00060155  00000+0  15008-2 0  9995", "line2": "2 66637  53.1593 119.4733 0000974  88.4175 271.6942 15.39644596  6411"}}, "geometry": {"type": "Point", "coordinates": [-13.754014888648337, -45.63287490618546]}}, {"type": "Feature", "properties": {"norad_id": 66638, "name": "STARLINK-35972", "group": "last-30-days", "lat": -46.65241775758051, "lon": 63.51778004060792, "alt_km": 452.3053340521328, "timestamp": "2025-12-27T17:24:56.104288+00:00", "meta": {"OBJECT_NAME": "STARLINK-35972", "OBJECT_ID": "2025-271X", "EPOCH": "2025-12-27T11:28:02.033184", "MEAN_MOTION": 15.39685646, "ECCENTRICITY": 0.0001092, "INCLINATION": 53.1594, "RA_OF_ASC_NODE": 117.2729, "ARG_OF_PERICENTER": 117.0176, "MEAN_ANOMALY": 243.094, "EPHEMERIS_TYPE": 0, "CLASSIFICATION_TYPE": "U", "NORAD_CAT_ID": 66638, "ELEMENT_SET_NO": 999, "REV_AT_EPOCH": 648, "BSTAR": 0.0019004, "MEAN_MOTION_DOT": 0.00076547, "MEAN_MOTION_DDOT": 0}, "tle": {"line1": "1 66638U 25271X   25361.47780131  .00076547  00000+0  19004-2 0  9998", "line2": "2 66638  53.1594 117.2729 0001092 117.0176 243.0940 15.39685646  6485"}}, "geometry": {"type": "Point", "coordinates": [63.51778004060792, -46.65241775758051]}}, {"type": "Feature", "properties": {"norad_id": 66639, "name": "STARLINK-35908", "group": "last-30-days", "lat": -30.61937529349298, "lon": 89.71052692613452, "alt_km": 451.1821877836692, "timestamp": "2025-12-27T17:24:56.104298+00:00", "meta": {"OBJECT_NAME": "STARLINK-35908", "OBJECT_ID": "2025-271Y", "EPOCH": "2025-12-26T18:13:06.311712", "MEAN_MOTION": 15.39628094, "ECCENTRICITY": 0.00010757, "INCLINATION": 53.1602, "RA_OF_ASC_NODE": 120.608, "ARG_OF_PERICENTER": 79.5752, "MEAN_ANOMALY": 280.5374, "EPHEMERIS_TYPE": 0, "CLASSIFICATION_TYPE": "U", "NORAD_CAT_ID": 66639, "ELEMENT_SET_NO": 999, "REV_AT_EPOCH": 637, "BSTAR": 0.0012582205, "MEAN_MOTION_DOT": 0.00050274, "MEAN_MOTION_DDOT": 0}, "tle": {"line1": "1 66639U 25271Y   25360.75910083  .00050274  00000+0  12582-2 0  9993", "line2": "2 66639  53.1602 120.6080 0001075  79.5752 280.5374 15.39628094  6376"}}, "geometry": {"type": "Point", "coordinates": [89.71052692613452, -30.61937529349298]}}, {"type": "Feature", "properties": {"norad_id": 66640, "name": "STARLINK-35921", "group": "last-30-days", "lat": -53.126930385375964, "lon": 24.348637432474042, "alt_km": 452.6995474163223, "timestamp": "2025-12-27T17:24:56.104308+00:00", "meta": {"OBJECT_NAME": "STARLINK-35921", "OBJECT_ID": "2025-271Z", "EPOCH": "2025-12-27T11:34:43.418208", "MEAN_MOTION": 15.39674834, "ECCENTRICITY": 0.000136, "INCLINATION": 53.1601, "RA_OF_ASC_NODE": 117.3018, "ARG_OF_PERICENTER": 72.7633, "MEAN_ANOMALY": 287.3521, "EPHEMERIS_TYPE": 0, "CLASSIFICATION_TYPE": "U", "NORAD_CAT_ID": 66640, "ELEMENT_SET_NO": 999, "REV_AT_EPOCH": 648, "BSTAR": 0.0015174, "MEAN_MOTION_DOT": 0.00060893, "MEAN_MOTION_DDOT": 0}, "tle": {"line1": "1 66640U 25271Z   25361.48244697  .00060893  00000+0  15174-2 0  9995", "line2": "2 66640  53.1601 117.3018 0001360  72.7633 287.3521 15.39674834  6485"}}, "geometry": {"type": "Point", "coordinates": [24.348637432474042, -53.126930385375964]}}, {"type": "Feature", "properties": {"norad_id": 66641, "name": "STARLINK-35923", "group": "last-30-days", "lat": 53.05361197159079, "lon": -158.75934534388045, "alt_km": 439.33610615889756, "timestamp": "2025-12-27T17:24:56.104321+00:00", "meta": {"OBJECT_NAME": "STARLINK-35923", "OBJECT_ID": "2025-271AA", "EPOCH": "2025-12-27T12:00:02.000160", "MEAN_MOTION": 15.39604889, "ECCENTRICITY": 0.0001177, "INCLINATION": 53.1603, "RA_OF_ASC_NODE": 116.8634, "ARG_OF_PERICENTER": 80.648, "MEAN_ANOMALY": 195.3588, "EPHEMERIS_TYPE": 0, "CLASSIFICATION_TYPE": "U", "NORAD_CAT_ID": 66641, "ELEMENT_SET_NO": 999, "REV_AT_EPOCH": 607, "BSTAR": 0.00020102, "MEAN_MOTION_DOT": 7.645e-05, "MEAN_MOTION_DDOT": 0}, "tle": {"line1": "1 66641U 25271AA  25361.50002315  .00007645  00000+0  20102-3 0  9992", "line2": "2 66641  53.1603 116.8634 0001177  80.6480 195.3588 15.39604889  6079"}}, "geometry": {"type": "Point", "coordinates": [-158.75934534388045, 53.05361197159079]}}, {"type": "Feature", "properties": {"norad_id": 66642, "name": "STARLINK-35926", "group": "last-30-days", "lat": 45.63008366615063, "lon": 165.87827023288656, "alt_km": 440.3961021498253, "timestamp": "2025-12-27T17:24:56.104331+00:00", "meta": {"OBJECT_NAME": "STARLINK-35926", "OBJECT_ID": "2025-271AB", "EPOCH": "2025-12-27T12:00:02.000160", "MEAN_MOTION": 15.39604713, "ECCENTRICITY": 0.0001231, "INCLINATION": 53.1604, "RA_OF_ASC_NODE": 116.9119, "ARG_OF_PERICENTER": 84.5134, "MEAN_ANOMALY": 167.5824, "EPHEMERIS_TYPE": 0, "CLASSIFICATION_TYPE": "U", "NORAD_CAT_ID": 66642, "ELEMENT_SET_NO": 999, "REV_AT_EPOCH": 607, "BSTAR": 0.0002445, "MEAN_MOTION_DOT": 9.388e-05, "MEAN_MOTION_DDOT": 0}, "tle": {"line1": "1 66642U 25271AB  25361.50002315  .00009388  00000+0  24450-3 0  9999", "line2": "2 66642  53.1604 116.9119 0001231  84.5134 167.5824 15.39604713  6070"}}, "geometry": {"type": "Point", "coordinates": [165.87827023288656, 45.63008366615063]}}, {"type": "Feature", "properties": {"norad_id": 66643, "name": "STARLINK-35918", "group": "last-30-days", "lat": -11.125679791208668, "lon": 107.52510989751234, "alt_km": 450.2443456532055, "timestamp": "2025-12-27T17:24:56.104343+00:00", "meta": {"OBJECT_NAME": "STARLINK-35918", "OBJECT_ID": "2025-271AC", "EPOCH": "2025-12-27T11:14:39.543936", "MEAN_MOTION": 15.39635581, "ECCENTRICITY": 0.0001776, "INCLINATION": 53.1611, "RA_OF_ASC_NODE": 117.2152, "ARG_OF_PERICENTER": 123.4999, "MEAN_ANOMALY": 236.6176, "EPHEMERIS_TYPE": 0, "CLASSIFICATION_TYPE": "U", "NORAD_CAT_ID": 66643, "ELEMENT_SET_NO": 999, "REV_AT_EPOCH": 648, "BSTAR": 0.0011654, "MEAN_MOTION_DOT": 0.00046525, "MEAN_MOTION_DDOT": 0}, "tle": {"line1": "1 66643U 25271AC  25361.46851324  .00046525  00000+0  11654-2 0  9992", "line2": "2 66643  53.1611 117.2152 0001776 123.4999 236.6176 15.39635581  6486"}}, "geometry": {"type": "Point", "coordinates": [107.52510989751234, -11.125679791208668]}}, {"type": "Feature", "properties": {"norad_id": 66644, "name": "STARLINK-35938", "group": "last-30-days", "lat": 44.657038291599086, "lon": 163.6509096316642, "alt_km": 440.4077116257886, "timestamp": "2025-12-27T17:24:56.104358+00:00", "meta": {"OBJECT_NAME": "STARLINK-35938", "OBJECT_ID": "2025-271AD", "EPOCH": "2025-12-27T12:00:02.000160", "MEAN_MOTION": 15.39606217, "ECCENTRICITY": 0.0001326, "INCLINATION": 53.1603, "RA_OF_ASC_NODE": 116.9159, "ARG_OF_PERICENTER": 64.6145, "MEAN_ANOMALY": 185.6276, "EPHEMERIS_TYPE": 0, "CLASSIFICATION_TYPE": "U", "NORAD_CAT_ID": 66644, "ELEMENT_SET_NO": 999, "REV_AT_EPOCH": 596, "BSTAR": 0.00033929, "MEAN_MOTION_DOT": 0.00013189, "MEAN_MOTION_DDOT": 0}, "tle": {"line1": "1 66644U 25271AD  25361.50002315  .00013189  00000+0  33929-3 0  9996", "line2": "2 66644  53.1603 116.9159 0001326  64.6145 185.6276 15.39606217  5961"}}, "geometry": {"type": "Point", "coordinates": [163.6509096316642, 44.657038291599086]}}]}